[
    {
        "Altitude(m)": 605470.7350571919,
        "Argument of Periapsis(deg)": 0.0,
        "Eccentricity": 0.0,
        "Inclination(deg)": 60.0,
        "Latitude(deg)": 27.988027757472537,
        "Longitude(deg)": -67.73707410168461,
        "Mean Anomaly(deg)": -212.7273,
        "RAAN(deg)": 229.99999999999997,
        "Satellite Name": "Test1 1021",
        "Satellite Number": 1021,
        "Semi-Major Axis(m)": 6980739.136638005,
        "Time(s)": 0
    },
    {
        "Altitude(m)": 605395.7736930271,
        "Argument of Periapsis(deg)": 0.00010418945913296404,
        "Eccentricity": 0.0,
        "Inclination(deg)": 60.0,
        "Latitude(deg)": 27.473718688941908,
        "Longitude(deg)": -67.38388643340322,
        "Mean Anomaly(deg)": -212.10719385453817,
        "RAAN(deg)": 229.99957995086024,
        "Satellite Name": "Test1 1021",
        "Satellite Number": 1021,
        "Semi-Major Axis(m)": 6980739.136638005,
        "Time(s)": 10
    }
]